ONEWEB-0176             
1 48210U 21031A   26197.71269304 -.00000004  00000+0 -44123-4 0  9992
2 48210  87.8970 283.8169 0002147 100.6002 259.5370 13.14502379252191
ONEWEB-0184             
1 48211U 21031B   26197.30514968  .00000148  00000+0  36403-3 0  9995
2 48211  87.8973 283.9005 0002633 113.5581 246.5825 13.14502646252110
ONEWEB-0179             
1 48212U 21031C   26197.64703838  .00000156  00000+0  43973-4 0  9999
2 48212  87.8991 279.8835 0221879 160.7206 200.2554 14.25549418253241
ONEWEB-0180             
1 48213U 21031D   26197.23220497  .00000287  00000+0  73829-3 0  9997
2 48213  87.8978 283.9118 0002476  98.5843 261.5567 13.14503219252038
ONEWEB-0218             
1 48214U 21031E   26197.63498603  .00000020  00000+0  18218-4 0  9995
2 48214  87.8980 283.8304 0002850 108.4644 251.6796 13.14503685252248
ONEWEB-0209             
1 48215U 21031F   26197.62389500  .00000199  00000+0  50278-3 0  9998
2 48215  87.8970 283.8472 0002236  95.8133 264.3251 13.14503411252248
ONEWEB-0198             
1 48216U 21031G   26197.30370310  .00000209  00000+0  52877-3 0  9992
2 48216  87.8960 283.9081 0002475  99.4509 260.6901 13.14503135252319
ONEWEB-0189             
1 48217U 21031H   26197.46848608  .00000242  00000+0  61916-3 0  9991
2 48217  87.8971 283.8646 0002388  99.7135 260.4265 13.14502804252075
ONEWEB-0196             
1 48218U 21031J   26197.67463737  .00000026  00000+0  36277-4 0  9994
2 48218  87.8965 283.8319 0002195  98.3159 261.8220 13.14502524252102
ONEWEB-0183             
1 48219U 21031K   26197.64926036 -.00000213  00000+0 -60947-3 0  9998
2 48219  87.8967 283.8345 0001970  93.8287 266.3068 13.14501804252195
ONEWEB-0185             
1 48220U 21031L   26197.67541052  .00000076  00000+0  17072-3 0  9990
2 48220  87.8975 283.8252 0002192  88.8004 271.3377 13.14504116252122
ONEWEB-0187             
1 48221U 21031M   26197.65546019 -.00000207  00000+0 -59329-3 0  9996
2 48221  87.8969 283.8425 0002186  95.6726 264.4652 13.14503042252135
ONEWEB-0192             
1 48222U 21031N   26197.62547644  .00000197  00000+0  49706-3 0  9993
2 48222  87.8968 283.8386 0002132 100.2052 259.9318 13.14503538252045
ONEWEB-0219             
1 48223U 21031P   26197.68096485  .00000163  00000+0  40453-3 0  9995
2 48223  87.8975 283.8211 0002207  93.8746 266.2636 13.14503817252258
ONEWEB-0202             
1 48224U 21031Q   26197.66195316 -.00000138  00000+0 -40798-3 0  9993
2 48224  87.8969 283.8371 0002695 106.4120 253.7306 13.14502748252232
ONEWEB-0204             
1 48225U 21031R   26197.61992095  .00000314  00000+0  81159-3 0  9998
2 48225  87.8970 283.8398 0001771  88.2652 271.8680 13.14502590252124
