{"fetched_at":"2026-07-17T06:37:51.309Z","source":"https://celestrak.org/NORAD/elements/gp.php?GROUP=oneweb&FORMAT=JSON","constellation":"oneweb","records":[{"OBJECT_NAME":"ONEWEB-0176","OBJECT_ID":"2021-031A","EPOCH":"2026-07-16T17:06:16.678656","CLASSIFICATION_TYPE":"U","MEAN_MOTION":13.14502379,"ECCENTRICITY":0.0002147,"INCLINATION":87.897,"RA_OF_ASC_NODE":283.8169,"ARG_OF_PERICENTER":100.6002,"MEAN_ANOMALY":259.537,"EPHEMERIS_TYPE":0,"NORAD_CAT_ID":48210,"ELEMENT_SET_NO":999,"REV_AT_EPOCH":25219,"BSTAR":-0.000044123,"MEAN_MOTION_DOT":-4e-8,"MEAN_MOTION_DDOT":0},{"OBJECT_NAME":"ONEWEB-0184","OBJECT_ID":"2021-031B","EPOCH":"2026-07-16T07:19:24.932352","CLASSIFICATION_TYPE":"U","MEAN_MOTION":13.14502646,"ECCENTRICITY":0.0002633,"INCLINATION":87.8973,"RA_OF_ASC_NODE":283.9005,"ARG_OF_PERICENTER":113.5581,"MEAN_ANOMALY":246.5825,"EPHEMERIS_TYPE":0,"NORAD_CAT_ID":48211,"ELEMENT_SET_NO":999,"REV_AT_EPOCH":25211,"BSTAR":0.00036403,"MEAN_MOTION_DOT":0.00000148,"MEAN_MOTION_DDOT":0},{"OBJECT_NAME":"ONEWEB-0179","OBJECT_ID":"2021-031C","EPOCH":"2026-07-16T15:31:44.116032","CLASSIFICATION_TYPE":"U","MEAN_MOTION":14.25549418,"ECCENTRICITY":0.0221879,"INCLINATION":87.8991,"RA_OF_ASC_NODE":279.8835,"ARG_OF_PERICENTER":160.7206,"MEAN_ANOMALY":200.2554,"EPHEMERIS_TYPE":0,"NORAD_CAT_ID":48212,"ELEMENT_SET_NO":999,"REV_AT_EPOCH":25324,"BSTAR":0.000043973,"MEAN_MOTION_DOT":0.00000156,"MEAN_MOTION_DDOT":0},{"OBJECT_NAME":"ONEWEB-0180","OBJECT_ID":"2021-031D","EPOCH":"2026-07-16T05:34:22.509408","CLASSIFICATION_TYPE":"U","MEAN_MOTION":13.14503219,"ECCENTRICITY":0.0002476,"INCLINATION":87.8978,"RA_OF_ASC_NODE":283.9118,"ARG_OF_PERICENTER":98.5843,"MEAN_ANOMALY":261.5567,"EPHEMERIS_TYPE":0,"NORAD_CAT_ID":48213,"ELEMENT_SET_NO":999,"REV_AT_EPOCH":25203,"BSTAR":0.00073829,"MEAN_MOTION_DOT":0.00000287,"MEAN_MOTION_DDOT":0},{"OBJECT_NAME":"ONEWEB-0218","OBJECT_ID":"2021-031E","EPOCH":"2026-07-16T15:14:22.792992","CLASSIFICATION_TYPE":"U","MEAN_MOTION":13.14503685,"ECCENTRICITY":0.000285,"INCLINATION":87.898,"RA_OF_ASC_NODE":283.8304,"ARG_OF_PERICENTER":108.4644,"MEAN_ANOMALY":251.6796,"EPHEMERIS_TYPE":0,"NORAD_CAT_ID":48214,"ELEMENT_SET_NO":999,"REV_AT_EPOCH":25224,"BSTAR":0.000018218,"MEAN_MOTION_DOT":2e-7,"MEAN_MOTION_DDOT":0},{"OBJECT_NAME":"ONEWEB-0209","OBJECT_ID":"2021-031F","EPOCH":"2026-07-16T14:58:24.528000","CLASSIFICATION_TYPE":"U","MEAN_MOTION":13.14503411,"ECCENTRICITY":0.0002236,"INCLINATION":87.897,"RA_OF_ASC_NODE":283.8472,"ARG_OF_PERICENTER":95.8133,"MEAN_ANOMALY":264.3251,"EPHEMERIS_TYPE":0,"NORAD_CAT_ID":48215,"ELEMENT_SET_NO":999,"REV_AT_EPOCH":25224,"BSTAR":0.00050278,"MEAN_MOTION_DOT":0.00000199,"MEAN_MOTION_DDOT":0},{"OBJECT_NAME":"ONEWEB-0198","OBJECT_ID":"2021-031G","EPOCH":"2026-07-16T07:17:19.947840","CLASSIFICATION_TYPE":"U","MEAN_MOTION":13.14503135,"ECCENTRICITY":0.0002475,"INCLINATION":87.896,"RA_OF_ASC_NODE":283.9081,"ARG_OF_PERICENTER":99.4509,"MEAN_ANOMALY":260.6901,"EPHEMERIS_TYPE":0,"NORAD_CAT_ID":48216,"ELEMENT_SET_NO":999,"REV_AT_EPOCH":25231,"BSTAR":0.00052877,"MEAN_MOTION_DOT":0.00000209,"MEAN_MOTION_DDOT":0},{"OBJECT_NAME":"ONEWEB-0189","OBJECT_ID":"2021-031H","EPOCH":"2026-07-16T11:14:37.197312","CLASSIFICATION_TYPE":"U","MEAN_MOTION":13.14502804,"ECCENTRICITY":0.0002388,"INCLINATION":87.8971,"RA_OF_ASC_NODE":283.8646,"ARG_OF_PERICENTER":99.7135,"MEAN_ANOMALY":260.4265,"EPHEMERIS_TYPE":0,"NORAD_CAT_ID":48217,"ELEMENT_SET_NO":999,"REV_AT_EPOCH":25207,"BSTAR":0.00061916,"MEAN_MOTION_DOT":0.00000242,"MEAN_MOTION_DDOT":0},{"OBJECT_NAME":"ONEWEB-0196","OBJECT_ID":"2021-031J","EPOCH":"2026-07-16T16:11:28.668768","CLASSIFICATION_TYPE":"U","MEAN_MOTION":13.14502524,"ECCENTRICITY":0.0002195,"INCLINATION":87.8965,"RA_OF_ASC_NODE":283.8319,"ARG_OF_PERICENTER":98.3159,"MEAN_ANOMALY":261.822,"EPHEMERIS_TYPE":0,"NORAD_CAT_ID":48218,"ELEMENT_SET_NO":999,"REV_AT_EPOCH":25210,"BSTAR":0.000036277,"MEAN_MOTION_DOT":2.6e-7,"MEAN_MOTION_DDOT":0},{"OBJECT_NAME":"ONEWEB-0183","OBJECT_ID":"2021-031K","EPOCH":"2026-07-16T15:34:56.095104","CLASSIFICATION_TYPE":"U","MEAN_MOTION":13.14501804,"ECCENTRICITY":0.000197,"INCLINATION":87.8967,"RA_OF_ASC_NODE":283.8345,"ARG_OF_PERICENTER":93.8287,"MEAN_ANOMALY":266.3068,"EPHEMERIS_TYPE":0,"NORAD_CAT_ID":48219,"ELEMENT_SET_NO":999,"REV_AT_EPOCH":25219,"BSTAR":-0.00060947,"MEAN_MOTION_DOT":-0.00000213,"MEAN_MOTION_DDOT":0},{"OBJECT_NAME":"ONEWEB-0185","OBJECT_ID":"2021-031L","EPOCH":"2026-07-16T16:12:35.468928","CLASSIFICATION_TYPE":"U","MEAN_MOTION":13.14504116,"ECCENTRICITY":0.0002192,"INCLINATION":87.8975,"RA_OF_ASC_NODE":283.8252,"ARG_OF_PERICENTER":88.8004,"MEAN_ANOMALY":271.3377,"EPHEMERIS_TYPE":0,"NORAD_CAT_ID":48220,"ELEMENT_SET_NO":999,"REV_AT_EPOCH":25212,"BSTAR":0.00017072,"MEAN_MOTION_DOT":7.6e-7,"MEAN_MOTION_DDOT":0},{"OBJECT_NAME":"ONEWEB-0187","OBJECT_ID":"2021-031M","EPOCH":"2026-07-16T15:43:51.760416","CLASSIFICATION_TYPE":"U","MEAN_MOTION":13.14503042,"ECCENTRICITY":0.0002186,"INCLINATION":87.8969,"RA_OF_ASC_NODE":283.8425,"ARG_OF_PERICENTER":95.6726,"MEAN_ANOMALY":264.4652,"EPHEMERIS_TYPE":0,"NORAD_CAT_ID":48221,"ELEMENT_SET_NO":999,"REV_AT_EPOCH":25213,"BSTAR":-0.00059329,"MEAN_MOTION_DOT":-0.00000207,"MEAN_MOTION_DDOT":0},{"OBJECT_NAME":"ONEWEB-0192","OBJECT_ID":"2021-031N","EPOCH":"2026-07-16T15:00:41.164416","CLASSIFICATION_TYPE":"U","MEAN_MOTION":13.14503538,"ECCENTRICITY":0.0002132,"INCLINATION":87.8968,"RA_OF_ASC_NODE":283.8386,"ARG_OF_PERICENTER":100.2052,"MEAN_ANOMALY":259.9318,"EPHEMERIS_TYPE":0,"NORAD_CAT_ID":48222,"ELEMENT_SET_NO":999,"REV_AT_EPOCH":25204,"BSTAR":0.00049706,"MEAN_MOTION_DOT":0.00000197,"MEAN_MOTION_DDOT":0},{"OBJECT_NAME":"ONEWEB-0219","OBJECT_ID":"2021-031P","EPOCH":"2026-07-16T16:20:35.363040","CLASSIFICATION_TYPE":"U","MEAN_MOTION":13.14503817,"ECCENTRICITY":0.0002207,"INCLINATION":87.8975,"RA_OF_ASC_NODE":283.8211,"ARG_OF_PERICENTER":93.8746,"MEAN_ANOMALY":266.2636,"EPHEMERIS_TYPE":0,"NORAD_CAT_ID":48223,"ELEMENT_SET_NO":999,"REV_AT_EPOCH":25225,"BSTAR":0.00040453,"MEAN_MOTION_DOT":0.00000163,"MEAN_MOTION_DDOT":0},{"OBJECT_NAME":"ONEWEB-0202","OBJECT_ID":"2021-031Q","EPOCH":"2026-07-16T15:53:12.753024","CLASSIFICATION_TYPE":"U","MEAN_MOTION":13.14502748,"ECCENTRICITY":0.0002695,"INCLINATION":87.8969,"RA_OF_ASC_NODE":283.8371,"ARG_OF_PERICENTER":106.412,"MEAN_ANOMALY":253.7306,"EPHEMERIS_TYPE":0,"NORAD_CAT_ID":48224,"ELEMENT_SET_NO":999,"REV_AT_EPOCH":25223,"BSTAR":-0.00040798,"MEAN_MOTION_DOT":-0.00000138,"MEAN_MOTION_DDOT":0},{"OBJECT_NAME":"ONEWEB-0204","OBJECT_ID":"2021-031R","EPOCH":"2026-07-16T14:52:41.170080","CLASSIFICATION_TYPE":"U","MEAN_MOTION":13.1450259,"ECCENTRICITY":0.0001771,"INCLINATION":87.897,"RA_OF_ASC_NODE":283.8398,"ARG_OF_PERICENTER":88.2652,"MEAN_ANOMALY":271.868,"EPHEMERIS_TYPE":0,"NORAD_CAT_ID":48225,"ELEMENT_SET_NO":999,"REV_AT_EPOCH":25212,"BSTAR":0.00081159,"MEAN_MOTION_DOT":0.00000314,"MEAN_MOTION_DDOT":0}]}
